Address,City,State,Zip
70 ELM ST,WEST HAVEN,CT,06516-3810
613 BOSTON POST RD & ROUTE 79,MADISON,CT,06443-3080
118 MAIN ST,NEW CANAAN,CT,06840-4709
92 BOSTON POST RD,WATERFORD,CT,06385-2421
15 CORPORATE DR STE 1-1,TRUMBULL,CT,06611-1351
969 HIGH RIDGE RD,STAMFORD,CT,06905-1608
200 BOSTON POST RD STE 9,MADISON,CT,06443-2144
1131 CAMPBELL AVE,WEST HAVEN,CT,06516-2004
8 GAY ST,SHARON,CT,06069-2030
915 POQUONNOCK RD,GROTON,CT,06340-4257
1 PADANARAM RD STE B,DANBURY,CT,06811-4836
629 MAIN STREET,SOMERS,CT,06071-0397
189 ALPS RD,BRANFORD,CT,06405-4771
22 DEPOT HILL RD,SOUTHBURY,CT,06488-2258
960 NORTH AVE,BRIDGEPORT,CT,06606-5750
750 MAIN ST,HARTFORD,CT,06103-2703
27 BROADWAY ST,COLCHESTER,CT,06415-1001
99 GREENWICH AVE,GREENWICH,CT,06830-5511
875 FOXON RD,EAST HAVEN,CT,06513-1837
90 MAIN ST,WINDSOR LOCKS,CT,06096-1913
1471 WHALLEY AVE,NEW HAVEN,CT,06515-1153
399 W MAIN ST,NORWICH,CT,06360-5414
724 QUEEN STREET,SOUTHINGTON,CT,6489
535 MONROE TPKE,MONROE,CT,06468-2382
266 WEST ST,LITCHFIELD,CT,06759-3404
225 SOUND BEACH AVE,OLD GREENWICH,CT,06870-1607
20 E MAIN ST,WATERBURY,CT,06702-2302
698 BANK ST,NEW LONDON,CT,06320-5040
1043 NORTH ST,GREENWICH,CT,06831-2701
294 MAIN ST,WINSTED,CT,06098-1688
660 FOXON RD,EAST HAVEN,CT,06513-1863
436 WHALLEY AVE,NEW HAVEN,CT,06511-3012
844 JONES HILL RD,WEST HAVEN,CT,06516-5643
351 N FRONTAGE RD,NEW LONDON,CT,06320-2628
1425 BARNUM AVE,STRATFORD,CT,06614-5404
49 WASHINGTON AVE,NORTH HAVEN,CT,06473-1704
1030 BARNUM AVE,STRATFORD,CT,06614-4985
105 ELM ST,OLD SAYBROOK,CT,06475-4132
425 W MAIN ST,MERIDEN,CT,06451-3816
85 SEYMOUR ST,HARTFORD,CT,06106-5501
67 PROSPECT HILL RD,EAST WINDSOR,CT,06088-3605
100 OXFORD RD,OXFORD,CT,06478-1990
10 CLARA DR,MYSTIC,CT,06355-1957
28 E ELM ST,TORRINGTON,CT,06790-5016
10 HEMINGWAY AVE,EAST HAVEN,CT,06512-3404
880 POST RD E,WESTPORT,CT,06880-5223
104 SEBETHE DR,CROMWELL,CT,06416-1038
161 WASHINGTON ST,HARTFORD,CT,06106-2464
4083 MAIN ST,BRIDGEPORT,CT,06606-2302
359 MAIN ST,SOUTHINGTON,CT,06489-4538
1135 FARMINGTON AVE,BERLIN,CT,06037-5200
1083 BOSTON POST RD,MILFORD,CT,06460-3550
370 MAIN ST S,SOUTHBURY,CT,06488-4200
15 CHESTERFIELD RD,EAST LYME,CT,06333-1730
200 UNIVERSAL DR N,NORTH HAVEN,CT,06473-3156
87 FOXON ST,NEW HAVEN,CT,06513-2365
1 ELM ST,WINDSOR LOCKS,CT,06096-2334
675 WASHINGTON ST,MIDDLETOWN,CT,06457-2901
72 BERLIN RD,CROMWELL,CT,06416-2602
180 MAIN ST,DEEP RIVER,CT,06417-2039
95 WAKELEE AVE,ANSONIA,CT,06401-1151
87 W STAFFORD RD,STAFFORD SPRINGS,CT,06076-1044
151 MAIN ST,DANBURY,CT,06810-7805
57 PROVIDENCE PIKE,PUTNAM,CT,06260-2413
11 FOREST ST,STAMFORD,CT,06901-1877
5 BRYAN HALL PLAZA,WASHINGTON DEPOT,CT,6794
110 MAIN ST,HEBRON,CT,06248-1518
49 S MAIN ST,NEWTOWN,CT,06470-2141
2800 MAIN ST,BRIDGEPORT,CT,06606-4201
645 FOXON RD,EAST HAVEN,CT,06513-1951
1 LONG WHARF DR STE 116,NEW HAVEN,CT,06511-5991
800 HOWARD AVE STE 197,NEW HAVEN,CT,06519-1369
60 TEMPLE ST,NEW HAVEN,CT,06510-2717
5 MILL ST,UNIONVILLE,CT,06085-1019
306 GRAND AVE,NEW HAVEN,CT,06513-3730
972 SILVER LN,EAST HARTFORD,CT,06118-1248
134 STILLWATER AVE,STAMFORD,CT,06902-4839
767 ORANGE ST,NEW HAVEN,CT,06511-2534
1415 CHAPEL ST,NEW HAVEN,CT,06511-4421
4 HAMMERHEAD PL,CROMWELL,CT,06416-1805
1239 E PUTNAM AVE,RIVERSIDE,CT,06878-1522
73 CENTER ST,SHELTON,CT,06484-3243
125 WESTBROOK RD,ESSEX,CT,06426-1521
1 HAWLEY LN,STRATFORD,CT,06614-1200
978 E MAIN ST,BRIDGEPORT,CT,06608-1913
632 MIDDLE TPKE,STORRS MANSFIELD,CT,06268-1308
311 MAIN ST,TERRYVILLE,CT,06786-5928
256 BUNKER HILL AVE,WATERBURY,CT,06708-1906
92 WILLOW ST,TORRINGTON,CT,06790-5501
2177 KILLINGLY CMNS,DAYVILLE,CT,06241-2188
20 BANK ST,GRANBY,CT,06035-2302
46 BROAD ST,NEW BRITAIN,CT,06053-4305
696 WEST AVE,NORWALK,CT,06850-3302
323 CROMWELL AVE,ROCKY HILL,CT,06067-1801
649 W MAIN ST,WATERBURY,CT,06702-1082
35 SHUNPIKE RD,CROMWELL,CT,06416-2414
36 N MAIN ST,SOUTHINGTON,CT,06489-2517
358 W MAIN ST,AVON,CT,06001-3643
99 LINWOOD AVE,COLCHESTER,CT,06415-1159
2175 DIXWELL AVE,HAMDEN,CT,06514-2405
30 HAZARD AVE,ENFIELD,CT,06082-3713
75 MAIN ST,DANBURY,CT,06810-7802
333 ARCH ST,NEW BRITAIN,CT,06051-2520
211 HIGH ST,TORRINGTON,CT,06790-6301
1360 BOSTON POST RD,MILFORD,CT,06460-2704
308 BERLIN TPKE,BERLIN,CT,06037-1506
340 FLANDERS RD,EAST LYME,CT,06333-1710
25 COLLINS RD,BRISTOL,CT,06010-3893
414 KINGS HWY E,FAIRFIELD,CT,06825-4846
469 PARK ST,HARTFORD,CT,06106-1519
372 W MAIN ST,NORWICH,CT,06360-5421
177 COLUMBUS BLVD,NEW BRITAIN,CT,06051-2226
77 OLD BRICKYARD LANE,BERLIN,CT,6037
747 PINE ST,BRISTOL,CT,06010-6959
3514 MAIN ST,COVENTRY,CT,06238-1551
40 CEDAR ST,NEWINGTON,CT,06111-2613
1333 E PUTNAM AVE,RIVERSIDE,CT,06878-1529
2639 MAIN ST,GLASTONBURY,CT,06033-2023
1326 POST RD,FAIRFIELD,CT,06824-6012
308 MAIN STREET EXT,MIDDLETOWN,CT,06457-4406
35 PADANARAM RD,DANBURY,CT,06811-3701
150 S MAIN ST,WEST HARTFORD,CT,06107-3432
15 PALOMBA DRIVE; SUITE #8,ENFIELD,CT,6082
292 SPIELMAN HWY,BURLINGTON,CT,06013-1727
920 WOLCOTT ST,WATERBURY,CT,06705-1300
840 E MAIN ST,MERIDEN,CT,06450-6008
498 BUSHY HILL RD,SIMSBURY,CT,06070-2931
445 WASHINGTON AVE,NORTH HAVEN,CT,06473-1320
24 HARTFORD RD UNIT 11,SALEM,CT,06420-3841
525 FARMINGTON AVE,BRISTOL,CT,06010-3931
10 LATHROP RD,PLAINFIELD,CT,06374-2030
241 MIDDLE TPKE W,MANCHESTER,CT,06040-3834
150 WASHINGTON ST,HARTFORD,CT,06106-4405
1093 N MAIN ST,DAYVILLE,CT,06241-2124
78 BROAD ST,MILFORD,CT,06460-3353
14 CANDLEWOOD LAKE RD,BROOKFIELD,CT,06804-2529
540 W MAIN ST,MERIDEN,CT,06451-2710
835 PARK AVE,BLOOMFIELD,CT,06002-2469
326 MAIN ST,SOUTHINGTON,CT,06489-2508
1606 BARNUM AVE,STRATFORD,CT,06614-5301
1100 SILAS DEANE HWY,WETHERSFIELD,CT,06109-4232
20 PROSPECT ST,MOOSUP,CT,06354-1425
5 FARMINGTON AVE,PLAINVILLE,CT,06062-1726
188 UNION ST,VERNON,CT,06066-2429
195 RIVER RD,LISBON,CT,06351-3253
299 WHITE ST # 305,DANBURY,CT,06810-6934
940 QUAKER LN S,WEST HARTFORD,CT,06110-1458
185 GROVE ST,WATERBURY,CT,06710-2289
1213 MAIN ST,WILLIMANTIC,CT,06226-1907
348 MAIN ST,MANCHESTER,CT,06040-4123
908 MAPLE AVE,HARTFORD,CT,06114-2723
1300 HOPMEADOW ST,SIMSBURY,CT,06070-1411
713 W MAIN ST,NEW BRITAIN,CT,06053-3969
500 ALBANY AVENUE,HARTFORD,CT,06120-2599
7 STONY HILL RD,BETHEL,CT,06801-1030
5065 MAIN ST STE TARGET,TRUMBULL,CT,06611-4204
657 SILAS DEANE HWY,WETHERSFIELD,CT,06109-3026
541 BRIDGEPORT AVE,MILFORD,CT,06460-4203
295 MAIN ST,MANCHESTER,CT,06040-4128
500 FARMINGTON AVE,HARTFORD,CT,06105-3106
40 EAST ST,NEW MILFORD,CT,06776-3014
839 E MAIN ST,MERIDEN,CT,06450-6006
90 ELM ST,ENFIELD,CT,06082-3770
1391 MAIN ST,WILLIMANTIC,CT,06226-1949
479 BLUE HILLS AVE,HARTFORD,CT,06112-1514
475 HARTFORD RD,NEW BRITAIN,CT,06053-1524
1200 MAIN ST,WILLIMANTIC,CT,06226-1908
1075 KENNEDY RD,WINDSOR,CT,06095-1308
138 HEIGHTS RD,DARIEN,CT,06820-4119
37 W MAIN ST,STAFFORD SPRINGS,CT,06076-1459
172 WEST MAIN STREET,MERIDEN,CT,6450
825 E MAIN ST,MERIDEN,CT,06450-6064
664 MAIN AVE UNIT B102,NORWALK,CT,06851-1162
593 NEWFIELD AVE,STAMFORD,CT,06905-3302
284 S COLONY RD,WALLINGFORD,CT,06492-4554
485 BROAD ST,MERIDEN,CT,06450-5801
125 DANBURY RD,RIDGEFIELD,CT,06877-4139
3710 MAIN ST,BRIDGEPORT,CT,06606-3613
441 LONG HILL RD,GROTON,CT,06340-4149
250 WESTPORT AVE,NORWALK,CT,06851-4158
734 BRIDGEPORT AVE,MILFORD,CT,06460-3169
111 ALBANY TPKE,CANTON,CT,06019-2507
100 RETREAT AVE STE 102B,HARTFORD,CT,06106-2528
581 HIGHLAND AVE,CHESHIRE,CT,06410-2205
1000 PARK AVE,BRIDGEPORT,CT,06604-3406
14 E MAIN ST,CLINTON,CT,06413-2019
2000 N MAIN ST,WATERBURY,CT,06704-2364
21 BROAD ST,STAMFORD,CT,06901-2309
668 FARMINGTON AVE,WEST HARTFORD,CT,06119-1810
275 MONROE TPKE,MONROE,CT,06468-2246
1312 MANCHESTER RD,GLASTONBURY,CT,06033-1824
2900 MAIN ST,GLASTONBURY,CT,06033-1027
529 TALCOTTVILLE RD,VERNON ROCKVILLE,CT,06066-2311
76 MAIN ST,CANAAN,CT,06018-2460
1309 CORBIN AVE,NEW BRITAIN,CT,06053-3857
60 MIDDLE ST,BRISTOL,CT,06010-5201
1116 BOSTON POST RD,GUILFORD,CT,06437-2624
52 EAST ST,PLAINVILLE,CT,06062-2309
311 E MAIN ST,MIDDLETOWN,CT,06457-4556
141 B Storrs Road,Mansfield Center,CT,6250
1968 BLACK ROCK TPKE,FAIRFIELD,CT,06825-3543
727 RUBBER AVE,NAUGATUCK,CT,06770-3642
7 DURANT AVE,BETHEL,CT,06801-1906
1211 BOSTON POST RD,WESTBROOK,CT,06498-1949
240 CHASE AVE,WATERBURY,CT,06704-2237
283 MAIN ST,PORTLAND,CT,06480-1856
2610 E MAIN ST,BRIDGEPORT,CT,06610-1422
8 S MAIN ST STE A,TERRYVILLE,CT,06786-6235
620 MAIN ST,WATERTOWN,CT,06795-2614
1020 FAIRFIELD AVE,BRIDGEPORT,CT,06605-1187
335 CENTER ST,MANCHESTER,CT,06040-3922
1492 HIGHLAND AVE STE 1C,CHESHIRE,CT,06410-1287
1240 FARMINGTON AVE,WEST HARTFORD,CT,06107-2618
153 HAZARD AVE STE 100,ENFIELD,CT,06082-4592
1191 BOSTON POST RD,MILFORD,CT,06460-2763
200 WESTMINSTER RD,CANTERBURY,CT,06331-1450
47 LAKE AVENUE EXT,DANBURY,CT,06811-5259
634 W MAIN ST,NORWICH,CT,06360-6007
120 HAWLEY LN,TRUMBULL,CT,06611-5347
220 ALBANY TPKE,CANTON,CT,06019-7068
277 FAIRFIELD AVE,WATERBURY,CT,06708-4068
120 NEW CANAAN AVE,NORWALK,CT,06850-2643
315 FRANKLIN AVE,HARTFORD,CT,06114-1851
1350 STANLEY ST,NEW BRITAIN,CT,06053-3224
2380 DIXWELL AVE,HAMDEN,CT,06514-1847
435 MAIN ST,MONROE,CT,06468-1151
113-115 MILL PLAIN RD,DANBURY,CT,06811-5277
55 WESTPORT AVE,NORWALK,CT,06851-3931
2 SHAKER RD,ENFIELD,CT,06082-3112
149 DEMING ST,MANCHESTER,CT,06042-1731
22 SPENCER PLAIN RD,OLD SAYBROOK,CT,06475-4000
215 FEDERAL RD,BROOKFIELD,CT,06804-2630
1630 BOSTON TPKE,COVENTRY,CT,06238-1205
25 BROADWAY AVE,MYSTIC,CT,06355-2834
173 DANBURY RD,NEW MILFORD,CT,06776-4309
144 BANK ST,SEYMOUR,CT,06483-2721
943 WOLCOTT ST,WATERBURY,CT,06705-1301
1697 WHITNEY AVE,HAMDEN,CT,06517-1928
74 BRIDGE ST,EAST WINDSOR,CT,06088-9679
764 CAMPBELL AVE,WEST HAVEN,CT,06516-3786
189 MAIN ST,NORWALK,CT,06851-3607
1619 POST RD,FAIRFIELD,CT,06824-5910
455 HARTFORD RD,MANCHESTER,CT,6040
633 WASHINGTON ST,MIDDLETOWN,CT,06457-2542
37 S BROAD ST,PAWCATUCK,CT,06379-7909
102 WASHINGTON ST,NEW BRITAIN,CT,06051-1826
1055 FARMINGTON AVE,KENSINGTON,CT,06037-2244
355 CAMPBELL AVE,WEST HAVEN,CT,06516-5329
106 BOSTON POST RD,WATERFORD,CT,06385-2426
1012 MAIN ST,BRANFORD,CT,06405-3730
279 BOSTON POST RD,ORANGE,CT,06477-3558
101 FEDERAL RD,DANBURY,CT,06811-4019
980 FARMINGTON AVE,BERLIN,CT,06037-2219
91 NORTHWEST DR STE L-14,PLAINVILLE,CT,06062-1534
33 MAIN ST,CENTERBROOK,CT,06409-1083
75 BOSTON POST RD,WATERFORD,CT,06385-2423
57 SOUTH ST,BRISTOL,CT,06010-6524
720 BRANCHVILLE RD,RIDGEFIELD,CT,06877-6129
690 WETHERSFIELD AVE,HARTFORD,CT,06114-1930
13 N WATER ST,GREENWICH,CT,06830-5814
1168 WHALLEY AVE,NEW HAVEN,CT,06515-1705
10 MAIN ST STE A,MIDDLETOWN,CT,06457-3407
46A DANBURY RD,RIDGEFIELD,CT,06877-4019
542 PROVIDENCE RD,BROOKLYN,CT,06234-3413
260 N MAIN ST,MANCHESTER,CT,06042-2004
151 FARMINGTON AVE,HARTFORD,CT,06156-0001
1078 SILAS DEANE HWY,WETHERSFIELD,CT,06109-4231
190 WESTON RD,WESTON,CT,06883-2126
525 BUCKLAND RD,SOUTH WINDSOR,CT,06074-3746
601 ROUTE 32 STE F,UNCASVILLE,CT,06382-2104
134 STATE ST,MERIDEN,CT,06450-3293
27 VILLAGE LANE,WALLINGFORD,CT,6492
1057 BOSTON POST RD,GUILFORD,CT,06437-2644
1060 E MAIN ST,BRIDGEPORT,CT,06608-1915
455 S MAIN ST,THOMASTON,CT,06787-1816
78 MAIN ST,JEWETT CITY,CT,06351-2226
157 MAIN ST,EAST HAVEN,CT,06512-2525
900 FARMINGTON AVE,KENSINGTON,CT,06037-2219
167 MAIN ST,SOUTHINGTON,CT,06489-2505
615 HOWARD AVE,NEW HAVEN,CT,06519-2112
11 MERIDEN RD,WATERBURY,CT,06705-1933
1657 ROUTE 12,GALES FERRY,CT,06335-1533
644 W PUTNAM AVE,GREENWICH,CT,06830-6008
50 WINDSORVILLE RD,VERNON,CT,06066-2385
20 NORTH MAIN STREET; P.O. BOX #218,BEACON FALLS,CT,6403
218 E MAIN ST,CLINTON,CT,06413-2230
20 CONNECTICUT BLVD,EAST HARTFORD,CT,06108-3007
2-6 SHORT BEACH RD,BRANFORD,CT,06405-6233
1475 MAIN ST,WILLIMANTIC,CT,06226-1914
200 NEW HARTFORD RD,WINSTED,CT,06098-3373
1291 ALBANY AVE,HARTFORD,CT,06112-2198
140 GREENWOOD AVE,BETHEL,CT,06801-2530
36 PINE ST,NEW CANAAN,CT,06840-5430
20 W MAIN ST,ANSONIA,CT,06401-1812
219 BROAD ST,WINDSOR,CT,06095-2904
330 GRASMERE AVE,FAIRFIELD,CT,06824-6102
905 S MAIN ST,CHESHIRE,CT,06410-3418
613 BROAD STREET,NEW LONDON,CT,6320
6 QUEEN ST,NEWTOWN,CT,06470-2146
817 BANK ST,NEW LONDON,CT,06320-3503
93 OLD RIDGEFIELD RD,WILTON,CT,06897-3023
110 E MAIN ST,TORRINGTON,CT,06790-5429
1203 HIGH RIDGE RD,STAMFORD,CT,06905-1214
2505 WHITNEY AVE,HAMDEN,CT,06518-3019
714 HOPMEADOW ST,SIMSBURY,CT,06070-2234
215 WHALLEY AVE,NEW HAVEN,CT,06511-3205
467 OCEAN AVE,NEW LONDON,CT,06320-4502
1745 E MAIN ST,TORRINGTON,CT,06790-3520
47 MAIN ST,WINSTED,CT,06098-1703
1407 FAIRFIELD AVE,BRIDGEPORT,CT,06605-1928
248 MAIN ST,NEW BRITAIN,CT,06051-2222
941 BRIDGEPORT AVE STE M5,MILFORD,CT,06460-3142
71 PALOMBA DRIVE,ENFIELD,CT,06082-3801
1387 NEW HAVEN AVE,MILFORD,CT,06460-8159
7365 MAIN STREET,STRATFORD,CT,6614
922 S MAIN ST,CHESHIRE,CT,06410-3419
2125 FAIRFIELD AVE,BRIDGEPORT,CT,06605-2639
300 CHASE AVE,WATERBURY,CT,06704-2246
263 FARMINGTON AVE,FARMINGTON,CT,06030-0001
839 FARMINGTON AVE,BRISTOL,CT,06010-3922
119 S MAIN ST,COLCHESTER,CT,06415-1456
30 GERMANTOWN RD,DANBURY,CT,06810-5033
926 MAIN ST,EAST HARTFORD,CT,06108-2237
47 TOWN ST STE G,NORWICH,CT,06360-2323
58 PENNSYLVANIA AVE,NIANTIC,CT,06357-3230
21 MONTAUK AVE STE 102,NEW LONDON,CT,06320-4906
397 POST RD E,WESTPORT,CT,06880-4401
1007 N MAIN ST,DAYVILLE,CT,06241-2170
289 GREENWOOD AVE,BETHEL,CT,06801-2402
430 N MAIN ST STE A,BRISTOL,CT,06010-4117
95 LOCUST AVE STE 100,DANBURY,CT,06810-6148
2427 MAIN ST,ROCKY HILL,CT,06067-2503
20 TOWN STREET,NORWICH,CT,6360
600 EXECUTIVE BLVD,SOUTHINGTON,CT,06489-6008
508 MONROE TPKE,MONROE,CT,06468-2309
227 MAIN ST,PORTLAND,CT,06480-1858
2045 DIXWELL AVE,HAMDEN,CT,06514-2405
1055 HIGH RIDGE RD,STAMFORD,CT,06905-1121
2005 NORWICH NEW LONDON TPKE,UNCASVILLE,CT,06382-1369
1058 HOPE ST,STAMFORD,CT,06907-2110
190 EAST AVE,NORWALK,CT,06855-1112
37 NEW HAVEN RD,SEYMOUR,CT,06483-3460
961 BLACK ROCK TPKE,FAIRFIELD,CT,06825-4702
341 COTTAGE GROVE RD,BLOOMFIELD,CT,06002-3148
9 HARTFORD AVE,GRANBY,CT,06035-2308
6 WILLARD RD,NORWALK,CT,06851-4414
682 MAIN ST S UNIT E 1,WOODBURY,CT,06798-3736
203 KENNEDY DR,PUTNAM,CT,06260-1628
2117 BOSTON AVE,BRIDGEPORT,CT,06610-3030
780 E MAIN ST,STAMFORD,CT,06902-3832
44 EAST AVE,NEW CANAAN,CT,06840-5518
90 HALLS RD,OLD LYME,CT,06371-4406
526 MERIDEN RD,WATERBURY,CT,06705-2217
444 CENTER ST,MANCHESTER,CT,06040-3926
597 FARMINGTON AVE,BRISTOL,CT,06010-3932
230 MAIN STREET EXT STE A,MIDDLETOWN,CT,06457-4470
141 MERIDEN RD,WATERBURY,CT,06705-1937
922 SILVER LN,EAST HARTFORD,CT,06118-1248
766 NEW LONDON TPKE,GLASTONBURY,CT,06033-3076
331 WEST ST,LITCHFIELD,CT,06759-3406
344 N MAIN ST,WEST HARTFORD,CT,06117-2526
200 MAIN ST S,SOUTHBURY,CT,06488-4250
410 REIDVILLE DR,WATERBURY,CT,06705-2660
22 WINDSOR AVE,VERNON ROCKVILLE,CT,06066-2439
605 N COLONY RD,WALLINGFORD,CT,06492-3109
54 WEST AVE,NORWALK,CT,06854-2225
14 FARMINGTON AVE,PLAINVILLE,CT,06062-1780
135 WEST ROAD,ELLINGTON,CT,6029
27 MAIN ST,JEWETT CITY,CT,06351-2203
3680 MAIN ST,STRATFORD,CT,06614-4102
698 POST RD,FAIRFIELD,CT,06824-6247
280 BRANFORD RD,NORTH BRANFORD,CT,06471-9995
930 N COLONY RD,WALLINGFORD,CT,06492-2471
404 MAIN ST,ANSONIA,CT,06401-2307
644 MAIN ST,MIDDLETOWN,CT,06457-2731
146 SOUTH ST,DANBURY,CT,06810-7951
519 BOSTON POST RD,OLD SAYBROOK,CT,06475-1526
162 WASHINGTON AVE,NORTH HAVEN,CT,06473-1711
964 POST RD,DARIEN,CT,06820-4508
1099 NEW BRITAIN AVE,WEST HARTFORD,CT,06110-2418
3265 BERLIN TPKE,NEWINGTON,CT,06111-5101
2 CHURCH ST,NAUGATUCK,CT,06770-4112
1875 BOSTON AVE,BRIDGEPORT,CT,06610-2623
588 MAIN ST,EAST HAVEN,CT,06512-2001
47 HAZARD AVE,ENFIELD,CT,06082-3813
700 BRIDGEPORT AVE,SHELTON,CT,06484-4734
1030 WOLCOTT ST,WATERBURY,CT,06705-1316
142 TALCOTTVILLE RD,VERNON,CT,06066-4705
213 CENTRAL AVE,NORWICH,CT,06360-3801
540 BUSHY HILL RD,SIMSBURY,CT,06070-2925
408 NEW BRITAIN AVE,HARTFORD,CT,06106-3832
26 DAVIS ST,OAKVILLE,CT,06779-1925
252 ORANGE AVE,WEST HAVEN,CT,06516-2003
95 MAIN ST S,BETHLEHEM,CT,06751-2004
249 LEGION AVE,NEW HAVEN,CT,06519-5508
883 PADDOCK AVE,MERIDEN,CT,06450-7044
543 W MAIN ST,NEW BRITAIN,CT,06053-3915
566 FARMINGTON AVE,HARTFORD,CT,06105-3050
325 FERRY ST,NEW HAVEN,CT,06513-3702
45 S MAIN ST,UNIONVILLE,CT,06085-1278
1245 CHAPEL ST,NEW HAVEN,CT,06511-4611
366 CROMWELL AVE,ROCKY HILL,CT,06067-1841
38 N MAIN ST,KENT,CT,06757-1511
2200 ATLANTIC ST STE 200,STAMFORD,CT,06902-6834
810 MAIN ST,MONROE,CT,06468-2809
744 WOLCOTT RD,WOLCOTT,CT,06716-1906
281 CONNECTICUT AVE,NORWALK,CT,06854-1938
116 GREENWICH AVE,GREENWICH,CT,06830-5504
40 W MAIN ST,VERNON ROCKVILLE,CT,06066-3501
1191 DIXWELL AVE,HAMDEN,CT,06514-4733
197 E MAIN ST,WATERBURY,CT,06702-2323
56 RUBBER AVE,NAUGATUCK,CT,06770-4136
26 WATERBURY RD,PROSPECT,CT,06712-1215
180 MAIN ST,CHESHIRE,CT,06410-2406
88 YORK ST,NEW HAVEN,CT,06511-5619
88 W STAFFORD RD,STAFFORD SPRINGS,CT,06076-1067
235 MAIN ST,NORWALK,CT,06851-2720
55 PARK ST STE 1A,NEW HAVEN,CT,06511-5474
1271 MAIN ST,WATERTOWN,CT,06795-3107
23 GOVERNOR ST,RIDGEFIELD,CT,06877-4687
989 BOSTON POST RD,MILFORD,CT,06460-3531
618 WEST AVE,NORWALK,CT,06850-4008
229 HOPE ST,STAMFORD,CT,06906-1601
289 POST RD E,WESTPORT,CT,06880-3613
976 1/2-978 FARMINGTON AVE,WEST HARTFORD,CT,06107-2102
656 NEW HAVEN AVE,DERBY,CT,06418-2528
329 ELLINGTON RD,EAST HARTFORD,CT,06108-1141
163 MOUNTAIN RD,SUFFIELD,CT,06078-2005
206 KITTS LN,NEWINGTON,CT,06111-4250
1922 E MAIN ST,TORRINGTON,CT,06790-3101
464 REIDVILLE DR,WATERBURY,CT,06705-2650
1450 CHAPEL ST,NEW HAVEN,CT,06511-4405
1036 W MAIN ST,BRANFORD,CT,06405-3428
2920 BERLIN TPKE,NEWINGTON,CT,06111-4116
20 BURNSIDE AVE,EAST HARTFORD,CT,06108-3403
1279 W MAIN ST,WATERBURY,CT,06708-3101
25 MAIN ST,BRISTOL,CT,06010-6528
891 N COLONY RD,WALLINGFORD,CT,06492-2437
500 QUEEN ST,SOUTHINGTON,CT,06489-1801
474 CHAMBERLAIN HWY,MERIDEN,CT,06451-1818
329 E MAIN ST,BRANFORD,CT,6405
399 WHALLEY AVE,NEW HAVEN,CT,06511-3008
1181 MAIN ST,NEWINGTON,CT,06111-3033
799-824 PARK AVE,BLOOMFIELD,CT,06002-2417
609 N MAIN ST,SOUTHINGTON,CT,06489-2051
215 WEST ST,SEYMOUR,CT,06483-2640
54 E HIGH ST,EAST HAMPTON,CT,06424-1052
54 BOSTON POST RD,ORANGE,CT,06477-3201
85 MIDDLETOWN AVE,NORTH HAVEN,CT,06473-3927
153 BROAD ST,MERIDEN,CT,06450-6550
299 E CENTER ST,MANCHESTER,CT,06040-5211
266 E MAIN ST,CLINTON,CT,06413-2254
624 W MAIN ST,NORWICH,CT,06360-6043
82 HOYT ST,STAMFORD,CT,06905-5701
900 HARTFORD TPKE,WATERFORD,CT,06385-4246
875 ENFIELD ST,ENFIELD,CT,06082-3617
467 MAIN ST,RIDGEFIELD,CT,06877-4513
1835 POST RD E,WESTPORT,CT,06880-5666
81 NORTH ST,BRISTOL,CT,06010-4152
280 BROAD ST,NEW LONDON,CT,06320-5227
98 BRIDGE ST,NAUGATUCK,CT,06770-2822
394 CAMPBELL AVE,WEST HAVEN,CT,06516-5012
493 HERITAGE RD,SOUTHBURY,CT,06488-3847
1395 MIDDLETOWN AVE,NORTHFORD,CT,06472-1395
24 PERSHING DR,ANSONIA,CT,06401-2214
369 MAIN ST,EAST HAVEN,CT,06512-2835
11 ROUTE 37,NEW FAIRFIELD,CT,06812-4615
152 COLONY ST # A,MERIDEN,CT,06451-3225
23 KILLINGWORTH RD,HIGGANUM,CT,06441-4242
26 FALLS RD,MOODUS,CT,6469
664 MAIN AVE UNIT B101,NORWALK,CT,06851-1162
714 DIXWELL AVE,NEW HAVEN,CT,06511-1038
125 BUCKLAND HILLS DR,MANCHESTER,CT,06042-8701
10 BROADWAY BLDG B,TRUMBULL,CT,06611-1302
8 ROYCE CIR,STORRS MANSFIELD,CT,06268-2258
558 CHASE AVE STE 2B,WATERBURY,CT,06704-1947
661 MAIN ST,TORRINGTON,CT,06790-3602
484 WINDSOR AVE,WINDSOR,CT,06095-4401
66 HIGH RIDGE RD,STAMFORD,CT,06905-3807
122 E PUTNAM AVE,COS COB,CT,06807-2720
1044 BOULEVARD,WEST HARTFORD,CT,06119-1801
94 PARK ST,NEW CANAAN,CT,06840-5401
330 MAIN ST,FARMINGTON,CT,06032-2961
25 E HIGH ST STE 8,EAST HAMPTON,CT,06424-1087
327 MAIN AVE,NORWALK,CT,06851-6156
210 DIXWELL AVE,NEW HAVEN,CT,06511-3416
1405 E MAIN ST UNIT 3,WATERBURY,CT,06705-1081
537 CANAL ST,STAMFORD,CT,06902-5901
29 GRAVEL ST,MERIDEN,CT,06450-4607
535 BOSTON POST RD,OLD SAYBROOK,CT,06475-1506
287 MAIN ST STE A-2,EAST HARTFORD,CT,06118-1885
